SatCatId,ObjectName,LaunchYear,OrbitalPeriod,LaunchMass,StatusCode,Inclination,Status,UcsData,OrbitClassEstimated,LaunchSiteCountry,Owner,UseType,Purpose,LaunchVehicleClass,TLE1,TLE2,MeanMotion,Eccentricity,OrbitClass
55360,STARLINK-5664,2023,95.84,-1.0,+,43.0,Active,0,LEO,USA,USA,Unknown,Unknown,Falcon,1 55360U 23013AF  23266.75821158 -.00000510  00000+0 -22648-4 0  9997,2 55360  43.0023 151.8773 0001323 268.4642  91.6049 15.02536055 36927,15.02536055,0.0001323,LEO
55361,STARLINK-5665,2023,95.84,-1.0,+,43.0,Active,0,LEO,USA,USA,Unknown,Unknown,Falcon,1 55361U 23013AG  23266.13058298  .00007185  00000+0  54624-3 0  9998,2 55361  43.0020 129.7631 0001289 261.6680  98.4016 15.02548235 36696,15.02548235,0.0001289,LEO
55362,STARLINK-5574,2023,95.84,-1.0,+,43.0,Active,0,LEO,USA,USA,Unknown,Unknown,Falcon,1 55362U 23013AH  23266.00094869  .00003431  00000+0  26895-3 0  9998,2 55362  43.0024 130.5108 0001060 263.6914  96.3807 15.02529587 36671,15.02529587,0.000106,LEO
55363,STARLINK-5648,2023,95.84,-1.0,+,43.0,Active,0,LEO,USA,USA,Unknown,Unknown,Falcon,1 55363U 23013AJ  23266.73834934  .00003649  00000+0  28498-3 0  9996,2 55363  43.0017 152.5902 0001341 262.5394  97.5296 15.02542946 36918,15.02542946,0.0001341,LEO
55364,STARLINK-5627,2023,95.84,-1.0,+,43.0,Active,0,LEO,USA,USA,Unknown,Unknown,Falcon,1 55364U 23013AK  23266.70641889  .00001619  00000+0  13488-3 0  9997,2 55364  43.0015 139.3564 0001061 261.2647  98.8076 15.02546001 37063,15.02546001,0.0001061,LEO
55365,STARLINK-5639,2023,95.84,-1.0,+,43.0,Active,0,LEO,USA,USA,Unknown,Unknown,Falcon,1 55365U 23013AL  23266.73169012 -.00001487  00000+0 -95026-4 0  9998,2 55365  43.0031 152.5374 0001059 256.9388 103.1336 15.02539115 36918,15.02539115,0.0001059,LEO
55366,STARLINK-5654,2023,95.84,-1.0,+,43.0,Active,0,LEO,USA,USA,Unknown,Unknown,Falcon,1 55366U 23013AM  23266.66797010 -.00001044  00000+0 -62252-4 0  9990,2 55366  43.0023 126.9157 0001204 287.9997  72.0714 15.02527309 37205,15.02527309,0.0001204,LEO
55367,STARLINK-5635,2023,95.84,-1.0,+,43.0,Active,0,LEO,USA,USA,Unknown,Unknown,Falcon,1 55367U 23013AN  23266.72333647 -.00001249  00000+0 -77448-4 0  9990,2 55367  43.0015 126.4686 0000909 267.6958  92.3780 15.02531022 37218,15.02531022,9.09e-05,LEO
55368,STARLINK-5625,2023,95.84,-1.0,+,43.0,Active,0,LEO,USA,USA,Unknown,Unknown,Falcon,1 55368U 23013AP  23266.72554986  .00005536  00000+0  42438-3 0  9993,2 55368  43.0005 126.4873 0000973 269.4593  90.6138 15.02549245 37216,15.02549245,9.73e-05,LEO
55369,STARLINK-5644,2023,95.84,-1.0,+,43.0,Active,0,LEO,USA,USA,Unknown,Unknown,Falcon,1 55369U 23013AQ  23266.72947160  .00000805  00000+0  74669-4 0  9990,2 55369  43.0021 152.5193 0001564 257.8747 102.1920 15.02540678 36914,15.02540678,0.0001564,LEO
55370,STARLINK-5027,2023,95.84,-1.0,+,43.0,Active,0,LEO,USA,USA,Unknown,Unknown,Falcon,1 55370U 23013AR  23266.73501908  .00000973  00000+0  87047-4 0  9999,2 55370  43.0004 152.5632 0001211 240.4000 119.6722 15.02542322 36915,15.02542322,0.0001211,LEO
55371,STARLINK-5590,2023,95.84,-1.0,+,43.0,Active,0,LEO,USA,USA,Unknown,Unknown,Falcon,1 55371U 23013AS  23266.18878176  .00010257  00000+0  77327-3 0  9998,2 55371  43.0023 155.3433 0001287 275.3450  84.7245 15.02533625 37320,15.02533625,0.0001287,LEO
55372,STARLINK-5568,2023,95.84,-1.0,+,43.0,Active,0,LEO,USA,USA,Unknown,Unknown,Falcon,1 55372U 23013AT  23266.72614250 -.00000743  00000+0 -39937-4 0  9997,2 55372  43.0029 152.4949 0000924 248.2290 111.8454 15.02539381 36918,15.02539381,9.24e-05,LEO
55373,STARLINK-5581,2023,95.89,-1.0,+,43.0,Active,0,LEO,USA,USA,Unknown,Unknown,Falcon,1 55373U 23013AU  23266.72957746 -.00000591  00000+0 -29454-4 0  9992,2 55373  43.0026 152.5158 0001235 261.3470  98.7232 15.01725787 36914,15.01725787,0.0001235,LEO
55374,STARLINK-5578,2023,95.84,-1.0,+,43.0,Active,0,LEO,USA,USA,Unknown,Unknown,Falcon,1 55374U 23013AV  23266.72391823  .00009651  00000+0  72839-3 0  9999,2 55374  43.0024 152.4806 0001358 274.5139  85.5548 15.02541767 36915,15.02541767,0.0001358,LEO
55375,STARLINK-5588,2023,95.84,-1.0,+,43.0,Active,0,LEO,USA,USA,Unknown,Unknown,Falcon,1 55375U 23013AW  23266.18321402  .00004767  00000+0  36766-3 0  9998,2 55375  43.0035 155.3021 0001108 284.3330  75.7389 15.02545491 36400,15.02545491,0.0001108,LEO
55376,STARLINK-5586,2023,95.84,-1.0,+,43.0,Active,0,LEO,USA,USA,Unknown,Unknown,Falcon,1 55376U 23013AX  23266.72000050 -.00001139  00000+0 -69255-4 0  9994,2 55376  43.0007 126.4427 0000552 254.5186 105.5595 15.02535094 37218,15.02535094,5.52e-05,LEO
55377,STARLINK-5567,2023,95.84,-1.0,+,43.0,Active,0,LEO,USA,USA,Unknown,Unknown,Falcon,1 55377U 23013AY  23266.70061398 -.00000385  00000+0 -13445-4 0  9997,2 55377  43.0020 152.3020 0001305 251.4006 108.6695 15.02536556 36910,15.02536556,0.0001305,LEO
55378,STARLINK-5572,2023,95.84,-1.0,+,43.0,Active,0,LEO,USA,USA,Unknown,Unknown,Falcon,1 55378U 23013AZ  23266.18543549  .00007266  00000+0  55227-3 0  9999,2 55378  43.0014 155.3199 0001191 256.7786 103.2924 15.02545209 36405,15.02545209,0.0001191,LEO
55379,STARLINK-5569,2023,95.84,-1.0,+,43.0,Active,0,LEO,USA,USA,Unknown,Unknown,Falcon,1 55379U 23013BA  23266.70616281  .00002622  00000+0  20908-3 0  9991,2 55379  43.0012 152.3440 0001338 278.6060  81.4630 15.02542061 36911,15.02542061,0.0001338,LEO
55380,STARLINK-5571,2023,95.84,-1.0,+,43.0,Active,0,LEO,USA,USA,Unknown,Unknown,Falcon,1 55380U 23013BB  23266.71777765  .00003723  00000+0  29048-3 0  9996,2 55380  42.9989 126.4263 0001101 255.2910 104.7811 15.02545734 37216,15.02545734,0.0001101,LEO
55381,STARLINK-5575,2023,95.84,-1.0,+,43.0,Active,0,LEO,USA,USA,Unknown,Unknown,Falcon,1 55381U 23013BC  23266.17100361  .00009944  00000+0  74963-3 0  9996,2 55381  43.0023 155.2075 0001224 269.0027  91.0675 15.02561036 36406,15.02561036,0.0001224,LEO
55382,STARLINK-5576,2023,95.84,-1.0,+,43.0,Active,0,LEO,USA,USA,Unknown,Unknown,Falcon,1 55382U 23013BD  23266.71171518 -.00000136  00000+0  50409-5 0  9995,2 55382  43.0016 152.3892 0001367 263.2439  96.8247 15.02538064 36914,15.02538064,0.0001367,LEO
55383,STARLINK-5531,2023,95.84,-1.0,+,43.0,Active,0,LEO,USA,USA,Unknown,Unknown,Falcon,1 55383U 23013BE  23266.11613887  .00003221  00000+0  25342-3 0  9993,2 55383  43.0027 129.6500 0001184 272.8219  87.2488 15.02537987 36698,15.02537987,0.0001184,LEO
55384,STARLINK-5537,2023,95.84,-1.0,+,43.0,Active,0,LEO,USA,USA,Unknown,Unknown,Falcon,1 55384U 23013BF  23266.04360723  .00006173  00000+0  47153-3 0  9997,2 55384  43.0020 155.9761 0001101 266.6911  93.3805 15.02543293 36386,15.02543293,0.0001101,LEO
55385,STARLINK-5556,2023,95.84,-1.0,+,43.0,Active,0,LEO,USA,USA,Unknown,Unknown,Falcon,1 55385U 23013BG  23266.76043355 -.00002000  00000+0 -13302-3 0  9992,2 55385  43.0031 151.8933 0001104 271.4013  88.6703 15.02534952 36921,15.02534952,0.0001104,LEO
55386,STARLINK-5555,2023,95.84,-1.0,+,43.0,Active,0,LEO,USA,USA,Unknown,Unknown,Falcon,1 55386U 23013BH  23266.69728236  .00003429  00000+0  26875-3 0  9996,2 55386  43.0021 152.2751 0001156 269.9060  90.1650 15.02541726 36910,15.02541726,0.0001156,LEO
55391,STARLINK-5077,2023,96.16,-1.0,+,70.0,Active,0,LEO,USA,USA,Unknown,Unknown,Falcon,1 55391U 23014A   23266.75081314  .00000020  00000+0  96097-5 0  9998,2 55391  70.0017 167.2534 0002913 268.2770  91.8055 14.97522241 36649,14.97522241,0.0002913,LEO
55392,STARLINK-5085,2023,93.61,-1.0,+,70.0,Active,0,LEO,USA,USA,Unknown,Unknown,Falcon,1 55392U 23014B   23266.58334491 -.00858558  00000+0 -24710-1 0  9995,2 55392  69.9999 150.4939 0003375 258.1671   5.6705 15.38118244 37040,15.38118244,0.0003375,LEO
55393,STARLINK-4786,2023,96.06,-1.0,+,70.0,Active,0,LEO,USA,USA,Unknown,Unknown,Falcon,1 55393U 23014C   23266.19644160  .00002081  00000+0  17842-3 0  9990,2 55393  70.0013 169.7376 0003029 274.3647  85.7166 14.99139893 37474,14.99139893,0.0003029,LEO
55394,STARLINK-5230,2023,96.11,-1.0,+,70.0,Active,0,LEO,USA,USA,Unknown,Unknown,Falcon,1 55394U 23014D   23266.79193888 -.00000310  00000+0 -18186-4 0  9991,2 55394  70.0027 168.1953 0002442 250.6084 109.4811 14.98330730 36623,14.9833073,0.0002442,LEO
55395,STARLINK-5274,2023,96.11,-1.0,+,70.0,Active,0,LEO,USA,USA,Unknown,Unknown,Falcon,1 55395U 23014E   23266.80429639 -.00001609  00000+0 -12712-3 0  9990,2 55395  70.0007 168.2247 0003206 270.4866  89.5926 14.98328699 36622,14.98328699,0.0003206,LEO
55396,STARLINK-5283,2023,96.11,-1.0,+,70.0,Active,0,LEO,USA,USA,Unknown,Unknown,Falcon,1 55396U 23014F   23266.13251608  .00001473  00000+0  13121-3 0  9998,2 55396  70.0018 169.9052 0002478 266.2655  93.8220 14.98328562 37463,14.98328562,0.0002478,LEO
55397,STARLINK-5224,2023,93.74,-1.0,+,70.0,Active,0,LEO,USA,USA,Unknown,Unknown,Falcon,1 55397U 23014G   23266.58334491 -.00862787  00000+0 -26623-1 0  9994,2 55397  69.9998 150.5460 0003232 268.4758 297.2311 15.35983981  5981,15.35983981,0.0003232,LEO
55398,STARLINK-5275,2023,96.11,-1.0,+,70.0,Active,0,LEO,USA,USA,Unknown,Unknown,Falcon,1 55398U 23014H   23266.14921196  .00002183  00000+0  19070-3 0  9995,2 55398  70.0021 169.9624 0002646 253.0621 107.0248 14.98329521 37462,14.98329521,0.0002646,LEO
55399,STARLINK-5276,2023,96.11,-1.0,+,70.0,Active,0,LEO,USA,USA,Unknown,Unknown,Falcon,1 55399U 23014J   23266.14086181  .00004907  00000+0  41865-3 0  9995,2 55399  70.0017 169.9330 0002882 269.3682  90.7147 14.98337566 37465,14.98337566,0.0002882,LEO
55400,STARLINK-5632,2023,96.11,-1.0,+,70.0,Active,0,LEO,USA,USA,Unknown,Unknown,Falcon,1 55400U 23014K   23266.75840602 -.00000009  00000+0  70470-5 0  9997,2 55400  70.0029 168.4797 0002724 260.6108  99.4743 14.98329321 36618,14.98329321,0.0002724,LEO
55401,STARLINK-5076,2023,96.11,-1.0,+,70.0,Active,0,LEO,USA,USA,Unknown,Unknown,Falcon,1 55401U 23014L   23266.14503704  .00002094  00000+0  18323-3 0  9992,2 55401  70.0015 169.9479 0003109 261.4302  98.6505 14.98330991 37466,14.98330991,0.0003109,LEO
